{"type": "FeatureCollection", "features": [ {"type": "Feature", "properties": {"norad_id": 66658, "name": "2025-274J", "group": "last-30-days", "lat": -15.720907984501174, "lon": -87.21804454778656, "alt_km": 589.7132279141533, "timestamp": "2025-12-09T07:41:31.973923+00:00", "meta": {"OBJECT_NAME": "2025-274J", "OBJECT_ID": "2025-274J", "EPOCH": "2025-12-08T18:53:29.669280", "MEAN_MOTION": 14.92588768, "ECCENTRICITY": 0.00115527, "INCLINATION": 97.7386, "RA_OF_ASC_NODE": 270.0641, "ARG_OF_PERICENTER": 294.1578, "MEAN_ANOMALY": 65.8433, "EPHEMERIS_TYPE": 0, "CLASSIFICATION_TYPE": "U", "NORAD_CAT_ID": 66658, "ELEMENT_SET_NO": 999, "REV_AT_EPOCH": 181, "BSTAR": 0.00045753621, "MEAN_MOTION_DOT": 4.657e-05, "MEAN_MOTION_DDOT": 0}, "tle": {"line1": "1 66658U 25274J   25342.78714895  .00004657  00000+0  45754-3 0  9995", "line2": "2 66658  97.7386 270.0641 0011552 294.1578  65.8433 14.92588768  1810"}}, "geometry": {"type": "Point", "coordinates": [-87.21804454778656, -15.720907984501174]}}, {"type": "Feature", "properties": {"norad_id": 66659, "name": "JACK K", "group": "last-30-days", "lat": -7.344924267693644, "lon": -88.40326449777073, "alt_km": 588.8365134093956, "timestamp": "2025-12-09T07:41:31.973933+00:00", "meta": {"OBJECT_NAME": "JACK K", "OBJECT_ID": "2025-274K", "EPOCH": "2025-12-08T20:27:50.867712", "MEAN_MOTION": 14.92772766, "ECCENTRICITY": 0.0012296, "INCLINATION": 97.7388, "RA_OF_ASC_NODE": 270.1324, "ARG_OF_PERICENTER": 295.0726, "MEAN_ANOMALY": 64.9216, "EPHEMERIS_TYPE": 0, "CLASSIFICATION_TYPE": "U", "NORAD_CAT_ID": 66659, "ELEMENT_SET_NO": 999, "REV_AT_EPOCH": 182, "BSTAR": 0.00033526195, "MEAN_MOTION_DOT": 3.413e-05, "MEAN_MOTION_DDOT": 0}, "tle": {"line1": "1 66659U 25274K   25342.85267208  .00003413  00000+0  33526-3 0  9998", "line2": "2 66659  97.7388 270.1324 0012296 295.0726  64.9216 14.92772766  1826"}}, "geometry": {"type": "Point", "coordinates": [-88.40326449777073, -7.344924267693644]}}, {"type": "Feature", "properties": {"norad_id": 66660, "name": "K-HERO", "group": "last-30-days", "lat": -0.5938308921852503, "lon": -89.32344832113091, "alt_km": 588.181331054675, "timestamp": "2025-12-09T07:41:31.973943+00:00", "meta": {"OBJECT_NAME": "K-HERO", "OBJECT_ID": "2025-274L", "EPOCH": "2025-12-08T20:26:05.497728", "MEAN_MOTION": 14.92924014, "ECCENTRICITY": 0.00129076, "INCLINATION": 97.7392, "RA_OF_ASC_NODE": 270.1345, "ARG_OF_PERICENTER": 295.6722, "MEAN_ANOMALY": 64.3164, "EPHEMERIS_TYPE": 0, "CLASSIFICATION_TYPE": "U", "NORAD_CAT_ID": 66660, "ELEMENT_SET_NO": 999, "REV_AT_EPOCH": 182, "BSTAR": 0.00037507933, "MEAN_MOTION_DOT": 3.841e-05, "MEAN_MOTION_DDOT": 0}, "tle": {"line1": "1 66660U 25274L   25342.85145252  .00003841  00000+0  37508-3 0  9993", "line2": "2 66660  97.7392 270.1345 0012907 295.6722  64.3164 14.92924014  1828"}}, "geometry": {"type": "Point", "coordinates": [-89.32344832113091, -0.5938308921852503]}}, {"type": "Feature", "properties": {"norad_id": 66661, "name": "SNUGLITE-III", "group": "last-30-days", "lat": 6.240844322227949, "lon": -90.25368106208109, "alt_km": 587.5029428844236, "timestamp": "2025-12-09T07:41:31.973955+00:00", "meta": {"OBJECT_NAME": "SNUGLITE-III", "OBJECT_ID": "2025-274M", "EPOCH": "2025-12-08T18:47:48.328800", "MEAN_MOTION": 14.93068876, "ECCENTRICITY": 0.00135555, "INCLINATION": 97.739, "RA_OF_ASC_NODE": 270.0699, "ARG_OF_PERICENTER": 296.9789, "MEAN_ANOMALY": 63.0046, "EPHEMERIS_TYPE": 0, "CLASSIFICATION_TYPE": "U", "NORAD_CAT_ID": 66661, "ELEMENT_SET_NO": 999, "REV_AT_EPOCH": 181, "BSTAR": 0.00036148161, "MEAN_MOTION_DOT": 3.714e-05, "MEAN_MOTION_DDOT": 0}, "tle": {"line1": "1 66661U 25274M   25342.78319825  .00003714  00000+0  36148-3 0  9993", "line2": "2 66661  97.7390 270.0699 0013555 296.9789  63.0046 14.93068876  1815"}}, "geometry": {"type": "Point", "coordinates": [-90.25368106208109, 6.240844322227949]}}, {"type": "Feature", "properties": {"norad_id": 66662, "name": "2025-274N", "group": "last-30-days", "lat": 8.963214285012047, "lon": -90.62941565393093, "alt_km": 587.4301561833117, "timestamp": "2025-12-09T07:41:31.973965+00:00", "meta": {"OBJECT_NAME": "2025-274N", "OBJECT_ID": "2025-274N", "EPOCH": "2025-12-08T18:47:05.648928", "MEAN_MOTION": 14.93116129, "ECCENTRICITY": 0.00139761, "INCLINATION": 97.7391, "RA_OF_ASC_NODE": 270.0706, "ARG_OF_PERICENTER": 296.2855, "MEAN_ANOMALY": 63.6929, "EPHEMERIS_TYPE": 0, "CLASSIFICATION_TYPE": "U", "NORAD_CAT_ID": 66662, "ELEMENT_SET_NO": 999, "REV_AT_EPOCH": 181, "BSTAR": 0.0002991181, "MEAN_MOTION_DOT": 3.067e-05, "MEAN_MOTION_DDOT": 0}, "tle": {"line1": "1 66662U 25274N   25342.78270427  .00003067  00000+0  29912-3 0  9990", "line2": "2 66662  97.7391 270.0706 0013976 296.2855  63.6929 14.93116129  1811"}}, "geometry": {"type": "Point", "coordinates": [-90.62941565393093, 8.963214285012047]}}, {"type": "Feature", "properties": {"norad_id": 66663, "name": "KSLV-II R/B", "group": "last-30-days", "lat": -20.32573765155444, "lon": 87.80851974133955, "alt_km": 602.3773606883315, "timestamp": "2025-12-09T07:41:31.973978+00:00", "meta": {"OBJECT_NAME": "KSLV-II R/B", "OBJECT_ID": "2025-274P", "EPOCH": "2025-12-06T19:27:04.446432", "MEAN_MOTION": 14.97226496, "ECCENTRICITY": 0.00484111, "INCLINATION": 97.7412, "RA_OF_ASC_NODE": 268.2109, "ARG_OF_PERICENTER": 339.2416, "MEAN_ANOMALY": 20.6839, "EPHEMERIS_TYPE": 0, "CLASSIFICATION_TYPE": "U", "NORAD_CAT_ID": 66663, "ELEMENT_SET_NO": 999, "REV_AT_EPOCH": 152, "BSTAR": 0.00053388811, "MEAN_MOTION_DOT": 6.269e-05, "MEAN_MOTION_DDOT": 0}, "tle": {"line1": "1 66663U 25274P   25340.81046813  .00006269  00000+0  53389-3 0  9995", "line2": "2 66663  97.7412 268.2109 0048411 339.2416  20.6839 14.97226496  1529"}}, "geometry": {"type": "Point", "coordinates": [87.80851974133955, -20.32573765155444]}}, {"type": "Feature", "properties": {"norad_id": 66664, "name": "SOYUZ-MS 28", "group": "last-30-days", "lat": 17.962675695940874, "lon": 174.29219556535816, "alt_km": 418.6408639865649, "timestamp": "2025-12-09T07:41:31.973988+00:00", "meta": {"OBJECT_NAME": "SOYUZ-MS 28", "OBJECT_ID": "2025-275A", "EPOCH": "2025-12-08T20:45:25.501536", "MEAN_MOTION": 15.49428834, "ECCENTRICITY": 0.00033811, "INCLINATION": 51.6308, "RA_OF_ASC_NODE": 161.6653, "ARG_OF_PERICENTER": 221.9847, "MEAN_ANOMALY": 138.0883, "EPHEMERIS_TYPE": 0, "CLASSIFICATION_TYPE": "U", "NORAD_CAT_ID": 66664, "ELEMENT_SET_NO": 999, "REV_AT_EPOCH": 128, "BSTAR": 0.00022803662, "MEAN_MOTION_DOT": 0.00012323, "MEAN_MOTION_DDOT": 0}, "tle": {"line1": "1 66664U 25275A   25342.86487849  .00012323  00000+0  22804-3 0  9998", "line2": "2 66664  51.6308 161.6653 0003381 221.9847 138.0883 15.49428834  1289"}}, "geometry": {"type": "Point", "coordinates": [174.29219556535816, 17.962675695940874]}}, {"type": "Feature", "properties": {"norad_id": 66820, "name": "KOMPSAT-7", "group": "last-30-days", "lat": -82.28424744140604, "lon": 27.058438065661477, "alt_km": 573.9400773234229, "timestamp": "2025-12-09T07:41:31.973998+00:00", "meta": {"OBJECT_NAME": "KOMPSAT-7", "OBJECT_ID": "2025-279A", "EPOCH": "2025-12-08T20:52:43.879584", "MEAN_MOTION": 14.98373092, "ECCENTRICITY": 0.0009454, "INCLINATION": 97.64, "RA_OF_ASC_NODE": 288.8147, "ARG_OF_PERICENTER": 234.6864, "MEAN_ANOMALY": 125.3475, "EPHEMERIS_TYPE": 0, "CLASSIFICATION_TYPE": "U", "NORAD_CAT_ID": 66820, "ELEMENT_SET_NO": 999, "REV_AT_EPOCH": 107, "BSTAR": 0.0004038464, "MEAN_MOTION_DOT": 4.761e-05, "MEAN_MOTION_DDOT": 0}, "tle": {"line1": "1 66820U 25279A   25342.86995231  .00004761  00000+0  40385-3 0  9996", "line2": "2 66820  97.6400 288.8147 0009454 234.6864 125.3475 14.98373092  1074"}}, "geometry": {"type": "Point", "coordinates": [27.058438065661477, -82.28424744140604]}}, {"type": "Feature", "properties": {"norad_id": 66877, "name": "ZQ-3 R/B", "group": "last-30-days", "lat": 37.424215083054094, "lon": 100.55702003314717, "alt_km": 1284.8157719492647, "timestamp": "2025-12-09T07:41:31.974011+00:00", "meta": {"OBJECT_NAME": "ZQ-3 R/B", "OBJECT_ID": "2025-282A", "EPOCH": "2025-12-08T14:53:29.353632", "MEAN_MOTION": 14.48659951, "ECCENTRICITY": 0.08242315, "INCLINATION": 56.9533, "RA_OF_ASC_NODE": 73.3202, "ARG_OF_PERICENTER": 212.8744, "MEAN_ANOMALY": 141.8352, "EPHEMERIS_TYPE": 0, "CLASSIFICATION_TYPE": "U", "NORAD_CAT_ID": 66877, "ELEMENT_SET_NO": 999, "REV_AT_EPOCH": 79, "BSTAR": 0.00024383409, "MEAN_MOTION_DOT": 0.01149741, "MEAN_MOTION_DDOT": 7.310405e-06}, "tle": {"line1": "1 66877U 25282A   25342.62047863  .01149741  73104-5  24383-3 0  9995", "line2": "2 66877  56.9533  73.3202 0824231 212.8744 141.8352 14.48659951   794"}}, "geometry": {"type": "Point", "coordinates": [100.55702003314717, 37.424215083054094]}}, {"type": "Feature", "properties": {"norad_id": 66906, "name": "1998-067XS", "group": "last-30-days", "lat": 31.021369317243025, "lon": -172.17307352260568, "alt_km": 414.1451645156212, "timestamp": "2025-12-09T07:41:31.974021+00:00", "meta": {"OBJECT_NAME": "1998-067XS", "OBJECT_ID": "1998-067XS", "EPOCH": "2025-12-08T22:13:59.029824", "MEAN_MOTION": 15.50272351, "ECCENTRICITY": 0.00040207, "INCLINATION": 51.6297, "RA_OF_ASC_NODE": 161.3264, "ARG_OF_PERICENTER": 185.5281, "MEAN_ANOMALY": 174.5664, "EPHEMERIS_TYPE": 0, "CLASSIFICATION_TYPE": "U", "NORAD_CAT_ID": 66906, "ELEMENT_SET_NO": 999, "REV_AT_EPOCH": 102, "BSTAR": 0.00053799922, "MEAN_MOTION_DOT": 0.0003067, "MEAN_MOTION_DDOT": 0}, "tle": {"line1": "1 66906U 98067XS  25342.92637766  .00030670  00000+0  53800-3 0  9993", "line2": "2 66906  51.6297 161.3264 0004020 185.5281 174.5664 15.50272351  1025"}}, "geometry": {"type": "Point", "coordinates": [-172.17307352260568, 31.021369317243025]}}]}